[{"CCSDS_OMM_VERS":"2.0","COMMENT":"GENERATED VIA SPACE-TRACK.ORG API","CREATION_DATE":"2022-12-08T03:13:54","ORIGINATOR":"18 SPCS","OBJECT_NAME":"INTELSAT 5 (PAS 5)","OBJECT_ID":"1997-046A","CENTER_NAME":"EARTH","REF_FRAME":"TEME","TIME_SYSTEM":"UTC","MEAN_ELEMENT_THEORY":"SGP4","EPOCH":"2022-12-07T18:38:03.813792","MEAN_MOTION":"1.00268798","ECCENTRICITY":"0.00057340","INCLINATION":"7.5973","RA_OF_ASC_NODE":"59.8317","ARG_OF_PERICENTER":"187.8923","MEAN_ANOMALY":"274.4687","EPHEMERIS_TYPE":"0","CLASSIFICATION_TYPE":"U","NORAD_CAT_ID":"24916","ELEMENT_SET_NO":"999","REV_AT_EPOCH":"9271","BSTAR":"0.00000000000000","MEAN_MOTION_DOT":"-0.00000054","MEAN_MOTION_DDOT":"0.0000000000000","SEMIMAJOR_AXIS":"42165.569","PERIOD":"1436.140","APOAPSIS":"35811.612","PERIAPSIS":"35763.257","OBJECT_TYPE":"PAYLOAD","RCS_SIZE":"LARGE","COUNTRY_CODE":"US","LAUNCH_DATE":"1997-08-28","SITE":"TTMTR","DECAY_DATE":null,"FILE":"3684212","GP_ID":"219726633","TLE_LINE0":"0 INTELSAT 5 (PAS 5)","TLE_LINE1":"1 24916U 97046A   22341.77643303 -.00000054  00000-0  00000-0 0  9993","TLE_LINE2":"2 24916   7.5973  59.8317 0005734 187.8923 274.4687  1.00268798 92713"},{"CCSDS_OMM_VERS":"2.0","COMMENT":"GENERATED VIA SPACE-TRACK.ORG API","CREATION_DATE":"2022-12-08T18:21:51","ORIGINATOR":"18 SPCS","OBJECT_NAME":"ABS 3 (AGILA 2)","OBJECT_ID":"1997-042A","CENTER_NAME":"EARTH","REF_FRAME":"TEME","TIME_SYSTEM":"UTC","MEAN_ELEMENT_THEORY":"SGP4","EPOCH":"2022-12-08T12:23:07.985760","MEAN_MOTION":"0.99264567","ECCENTRICITY":"0.00017240","INCLINATION":"8.6221","RA_OF_ASC_NODE":"52.5164","ARG_OF_PERICENTER":"198.1022","MEAN_ANOMALY":"174.5605","EPHEMERIS_TYPE":"0","CLASSIFICATION_TYPE":"U","NORAD_CAT_ID":"24901","ELEMENT_SET_NO":"999","REV_AT_EPOCH":"9246","BSTAR":"0.00000000000000","MEAN_MOTION_DOT":"-0.00000246","MEAN_MOTION_DDOT":"0.0000000000000","SEMIMAJOR_AXIS":"42449.477","PERIOD":"1450.669","APOAPSIS":"36078.660","PERIAPSIS":"36064.023","OBJECT_TYPE":"PAYLOAD","RCS_SIZE":"LARGE","COUNTRY_CODE":"PRC","LAUNCH_DATE":"1997-08-19","SITE":"XSC","DECAY_DATE":null,"FILE":"3684614","GP_ID":"219759487","TLE_LINE0":"0 ABS 3 (AGILA 2)","TLE_LINE1":"1 24901U 97042A   22342.51606465 -.00000246  00000-0  00000-0 0  9997","TLE_LINE2":"2 24901   8.6221  52.5164 0001724 198.1022 174.5605  0.99264567 92464"},{"CCSDS_OMM_VERS":"2.0","COMMENT":"GENERATED VIA SPACE-TRACK.ORG API","CREATION_DATE":"2022-12-08T18:21:51","ORIGINATOR":"18 SPCS","OBJECT_NAME":"SUPERBIRD C","OBJECT_ID":"1997-036A","CENTER_NAME":"EARTH","REF_FRAME":"TEME","TIME_SYSTEM":"UTC","MEAN_ELEMENT_THEORY":"SGP4","EPOCH":"2022-12-08T08:36:36.524448","MEAN_MOTION":"0.99072666","ECCENTRICITY":"0.00049020","INCLINATION":"9.8899","RA_OF_ASC_NODE":"42.7361","ARG_OF_PERICENTER":"322.0291","MEAN_ANOMALY":"37.8480","EPHEMERIS_TYPE":"0","CLASSIFICATION_TYPE":"U","NORAD_CAT_ID":"24880","ELEMENT_SET_NO":"999","REV_AT_EPOCH":"5212","BSTAR":"0.00000000000000","MEAN_MOTION_DOT":"-0.00000056","MEAN_MOTION_DDOT":"0.0000000000000","SEMIMAJOR_AXIS":"42504.275","PERIOD":"1453.479","APOAPSIS":"36146.975","PERIAPSIS":"36105.304","OBJECT_TYPE":"PAYLOAD","RCS_SIZE":"LARGE","COUNTRY_CODE":"JPN","LAUNCH_DATE":"1997-07-28","SITE":"AFETR","DECAY_DATE":null,"FILE":"3684614","GP_ID":"219760738","TLE_LINE0":"0 SUPERBIRD C","TLE_LINE1":"1 24880U 97036A   22342.35875607 -.00000056  00000-0  00000-0 0  9993","TLE_LINE2":"2 24880   9.8899  42.7361 0004902 322.0291  37.8480  0.99072666 52129"},{"CCSDS_OMM_VERS":"2.0","COMMENT":"GENERATED VIA SPACE-TRACK.ORG API","CREATION_DATE":"2022-12-08T18:21:51","ORIGINATOR":"18 SPCS","OBJECT_NAME":"INMARSAT 3-F4","OBJECT_ID":"1997-027A","CENTER_NAME":"EARTH","REF_FRAME":"TEME","TIME_SYSTEM":"UTC","MEAN_ELEMENT_THEORY":"SGP4","EPOCH":"2022-12-08T01:08:21.387264","MEAN_MOTION":"0.99500198","ECCENTRICITY":"0.00083150","INCLINATION":"9.1752","RA_OF_ASC_NODE":"46.8664","ARG_OF_PERICENTER":"31.3442","MEAN_ANOMALY":"41.2185","EPHEMERIS_TYPE":"0","CLASSIFICATION_TYPE":"U","NORAD_CAT_ID":"24819","ELEMENT_SET_NO":"999","REV_AT_EPOCH":"9325","BSTAR":"0.00000000000000","MEAN_MOTION_DOT":"0.00000033","MEAN_MOTION_DDOT":"0.0000000000000","SEMIMAJOR_AXIS":"42382.432","PERIOD":"1447.233","APOAPSIS":"36039.538","PERIAPSIS":"35969.056","OBJECT_TYPE":"PAYLOAD","RCS_SIZE":"LARGE","COUNTRY_CODE":"IM","LAUNCH_DATE":"1997-06-03","SITE":"FRGUI","DECAY_DATE":null,"FILE":"3684614","GP_ID":"219759235","TLE_LINE0":"0 INMARSAT 3-F4","TLE_LINE1":"1 24819U 97027A   22342.04746976  .00000033  00000-0  00000-0 0  9991","TLE_LINE2":"2 24819   9.1752  46.8664 0008315  31.3442  41.2185  0.99500198 93259"},{"CCSDS_OMM_VERS":"2.0","COMMENT":"GENERATED VIA SPACE-TRACK.ORG API","CREATION_DATE":"2022-12-07T02:08:33","ORIGINATOR":"18 SPCS","OBJECT_NAME":"GALAXY 25 (TELSTAR 5)","OBJECT_ID":"1997-026A","CENTER_NAME":"EARTH","REF_FRAME":"TEME","TIME_SYSTEM":"UTC","MEAN_ELEMENT_THEORY":"SGP4","EPOCH":"2022-12-06T16:33:42.621696","MEAN_MOTION":"1.00273104","ECCENTRICITY":"0.00069240","INCLINATION":"4.1184","RA_OF_ASC_NODE":"81.9026","ARG_OF_PERICENTER":"201.2731","MEAN_ANOMALY":"106.8311","EPHEMERIS_TYPE":"0","CLASSIFICATION_TYPE":"U","NORAD_CAT_ID":"24812","ELEMENT_SET_NO":"999","REV_AT_EPOCH":"9345","BSTAR":"0.00000000000000","MEAN_MOTION_DOT":"0.00000007","MEAN_MOTION_DDOT":"0.0000000000000","SEMIMAJOR_AXIS":"42164.362","PERIOD":"1436.078","APOAPSIS":"35815.422","PERIAPSIS":"35757.033","OBJECT_TYPE":"PAYLOAD","RCS_SIZE":"LARGE","COUNTRY_CODE":"US","LAUNCH_DATE":"1997-05-24","SITE":"TTMTR","DECAY_DATE":null,"FILE":"3683274","GP_ID":"219679937","TLE_LINE0":"0 GALAXY 25 (TELSTAR 5)","TLE_LINE1":"1 24812U 97026A   22340.69007664  .00000007  00000-0  00000-0 0  9997","TLE_LINE2":"2 24812   4.1184  81.9026 0006924 201.2731 106.8311  1.00273104 93459"},{"CCSDS_OMM_VERS":"2.0","COMMENT":"GENERATED VIA SPACE-TRACK.ORG API","CREATION_DATE":"2022-12-08T18:21:51","ORIGINATOR":"18 SPCS","OBJECT_NAME":"DFH-3 2","OBJECT_ID":"1997-021A","CENTER_NAME":"EARTH","REF_FRAME":"TEME","TIME_SYSTEM":"UTC","MEAN_ELEMENT_THEORY":"SGP4","EPOCH":"2022-12-08T13:46:41.604096","MEAN_MOTION":"1.00365846","ECCENTRICITY":"0.00083880","INCLINATION":"12.4248","RA_OF_ASC_NODE":"22.7674","ARG_OF_PERICENTER":"87.5402","MEAN_ANOMALY":"268.6784","EPHEMERIS_TYPE":"0","CLASSIFICATION_TYPE":"U","NORAD_CAT_ID":"24798","ELEMENT_SET_NO":"999","REV_AT_EPOCH":"9361","BSTAR":"0.00000000000000","MEAN_MOTION_DOT":"-0.00000295","MEAN_MOTION_DDOT":"0.0000000000000","SEMIMAJOR_AXIS":"42138.384","PERIOD":"1434.751","APOAPSIS":"35795.595","PERIAPSIS":"35724.903","OBJECT_TYPE":"PAYLOAD","RCS_SIZE":"LARGE","COUNTRY_CODE":"PRC","LAUNCH_DATE":"1997-05-11","SITE":"XSC","DECAY_DATE":null,"FILE":"3684614","GP_ID":"219760234","TLE_LINE0":"0 DFH-3 2","TLE_LINE1":"1 24798U 97021A   22342.57409264 -.00000295  00000-0  00000-0 0  9996","TLE_LINE2":"2 24798  12.4248  22.7674 0008388  87.5402 268.6784  1.00365846 93617"},{"CCSDS_OMM_VERS":"2.0","COMMENT":"GENERATED VIA SPACE-TRACK.ORG API","CREATION_DATE":"2022-12-06T02:31:27","ORIGINATOR":"18 SPCS","OBJECT_NAME":"GOES 10","OBJECT_ID":"1997-019A","CENTER_NAME":"EARTH","REF_FRAME":"TEME","TIME_SYSTEM":"UTC","MEAN_ELEMENT_THEORY":"SGP4","EPOCH":"2022-12-04T00:40:38.316000","MEAN_MOTION":"0.99125587","ECCENTRICITY":"0.00281960","INCLINATION":"11.6125","RA_OF_ASC_NODE":"29.6267","ARG_OF_PERICENTER":"205.0470","MEAN_ANOMALY":"167.8545","EPHEMERIS_TYPE":"0","CLASSIFICATION_TYPE":"U","NORAD_CAT_ID":"24786","ELEMENT_SET_NO":"999","REV_AT_EPOCH":"9326","BSTAR":"0.00000000000000","MEAN_MOTION_DOT":"-0.00000252","MEAN_MOTION_DDOT":"0.0000000000000","SEMIMAJOR_AXIS":"42489.145","PERIOD":"1452.703","APOAPSIS":"36230.813","PERIAPSIS":"35991.208","OBJECT_TYPE":"PAYLOAD","RCS_SIZE":"LARGE","COUNTRY_CODE":"US","LAUNCH_DATE":"1997-04-25","SITE":"AFETR","DECAY_DATE":null,"FILE":"3682465","GP_ID":"219612092","TLE_LINE0":"0 GOES 10","TLE_LINE1":"1 24786U 97019A   22338.02822125 -.00000252  00000-0  00000-0 0  9993","TLE_LINE2":"2 24786  11.6125  29.6267 0028196 205.0470 167.8545  0.99125587 93263"},{"CCSDS_OMM_VERS":"2.0","COMMENT":"GENERATED VIA SPACE-TRACK.ORG API","CREATION_DATE":"2022-12-08T18:21:51","ORIGINATOR":"18 SPCS","OBJECT_NAME":"BSAT-1A","OBJECT_ID":"1997-016B","CENTER_NAME":"EARTH","REF_FRAME":"TEME","TIME_SYSTEM":"UTC","MEAN_ELEMENT_THEORY":"SGP4","EPOCH":"2022-12-08T13:58:13.845216","MEAN_MOTION":"0.99120060","ECCENTRICITY":"0.00021900","INCLINATION":"8.6648","RA_OF_ASC_NODE":"50.0647","ARG_OF_PERICENTER":"247.6804","MEAN_ANOMALY":"103.2164","EPHEMERIS_TYPE":"0","CLASSIFICATION_TYPE":"U","NORAD_CAT_ID":"24769","ELEMENT_SET_NO":"999","REV_AT_EPOCH":"3404","BSTAR":"0.00000000000000","MEAN_MOTION_DOT":"-0.00000187","MEAN_MOTION_DDOT":"0.0000000000000","SEMIMAJOR_AXIS":"42490.725","PERIOD":"1452.784","APOAPSIS":"36121.895","PERIAPSIS":"36103.284","OBJECT_TYPE":"PAYLOAD","RCS_SIZE":"LARGE","COUNTRY_CODE":"JPN","LAUNCH_DATE":"1997-04-16","SITE":"FRGUI","DECAY_DATE":null,"FILE":"3684614","GP_ID":"219759733","TLE_LINE0":"0 BSAT-1A","TLE_LINE1":"1 24769U 97016B   22342.58210469 -.00000187  00000-0  00000-0 0  9996","TLE_LINE2":"2 24769   8.6648  50.0647 0002190 247.6804 103.2164  0.99120060 34042"}]